{
    "10143": {
        "Name": "Hoffmann Handel & Dienstleistung",
        "Adresse": {
            "Strasse": "Am Sch\u00fcrmannsh\u00fctt 30",
            "Ort": "Moers",
            "PLZ": "47441"
        }
    },
    "10011": {
        "Name": "Shanti Gro\u00dfhandels GmbH",
        "Adresse": {
            "Strasse": "Eversburger Stra\u00dfe 44",
            "Ort": "Osnabr\u00fcck",
            "PLZ": "49090"
        }
    },
    "10012": {
        "Name": "Tugra Tobacco GmbH & Co. KG",
        "Adresse": {
            "Strasse": "Marienbruchstra\u00dfe 68-70",
            "Ort": "Salzgitter",
            "PLZ": "38226"
        }
    },
    "10013": {
        "Name": "PDM Parthian Distributer &",
        "Adresse": {
            "Strasse": "Wichmannstra\u00dfe 4",
            "Ort": "Hamburg",
            "PLZ": "22607"
        }
    },
    "10014": {
        "Name": "hookah-shop24.de",
        "Adresse": {
            "Strasse": "Am Zweibr\u00fccker Tor 12",
            "Ort": "Homburg",
            "PLZ": "66424"
        }
    },
    "10015": {
        "Name": "Demu GmbH",
        "Adresse": {
            "Strasse": "Kapellenweg 75",
            "Ort": "Schermbeck",
            "PLZ": "46514"
        }
    },
    "10016": {
        "Name": "Smoke-Faktory Dorsten",
        "Adresse": {
            "Strasse": "Im Harsewinkel 4",
            "Ort": "Dorsten",
            "PLZ": "46284"
        }
    },
    "10017": {
        "Name": "ShishAddict Store D\u00fclmen",
        "Adresse": {
            "Strasse": "Borkener Str. 3",
            "Ort": "D\u00fclmen",
            "PLZ": "48249"
        }
    },
    "10009": {
        "Name": "Chtoura GmbH",
        "Adresse": {
            "Strasse": "Alte Bottroper Stra\u00dfe 89",
            "Ort": "Essen",
            "PLZ": "45356"
        }
    },
    "10008": {
        "Name": "GRAF.studios UG",
        "Adresse": {
            "Strasse": "Hubertstra\u00dfe",
            "Ort": "Essen",
            "PLZ": "45307"
        }
    },
    "10010": {
        "Name": "HEST GmbH",
        "Adresse": {
            "Strasse": "Turmstra\u00dfe 49",
            "Ort": "Bad Oldesloe",
            "PLZ": "23843"
        }
    },
    "10018": {
        "Name": "2U GmbH & Co. KG",
        "Adresse": {
            "Strasse": "Steinfurt 20",
            "Ort": "Stolberg",
            "PLZ": "52222"
        }
    },
    "10019": {
        "Name": "LottOberlar",
        "Adresse": {
            "Strasse": "Sieglarerstr. 52a",
            "Ort": "Troisdorf",
            "PLZ": "53842"
        }
    },
    "10020": {
        "Name": "Holy Vaping",
        "Adresse": {
            "Strasse": "Dorfbroicher Strasse 33",
            "Ort": "M\u00f6nchengladbach",
            "PLZ": "41236"
        }
    },
    "10021": {
        "Name": "D&J Enterprise",
        "Adresse": {
            "Strasse": "Astheimer Str. 22",
            "Ort": "R\u00fcsselsheim",
            "PLZ": "65428"
        }
    },
    "10022": {
        "Name": "Meisterfids GmbH",
        "Adresse": {
            "Strasse": "Aueweg 3",
            "Ort": "Wedemark",
            "PLZ": "30900"
        }
    },
    "10023": {
        "Name": "DNA Sales Solutions",
        "Adresse": {
            "Strasse": "Schaffenbergstra\u00dfe 28",
            "Ort": "Korschenbroich",
            "PLZ": "41352"
        }
    },
    "10024": {
        "Name": "Shisha-Nil",
        "Adresse": {
            "Strasse": "Handelsstra\u00dfe 5",
            "Ort": "Eppelheim",
            "PLZ": "69214"
        }
    },
    "10025": {
        "Name": "Toker Trading GmbH",
        "Adresse": {
            "Strasse": "Steinbeisstra\u00dfe 16",
            "Ort": "Fellbach",
            "PLZ": "70736"
        }
    },
    "10026": {
        "Name": "MickyCare",
        "Adresse": {
            "Strasse": "Orionweg 6",
            "Ort": "Mahlberg",
            "PLZ": "77972"
        }
    },
    "10027": {
        "Name": "King Handel GmbH",
        "Adresse": {
            "Strasse": "Die\u00dfmerstr. 13",
            "Ort": "Krefeld",
            "PLZ": "47799"
        }
    },
    "10028": {
        "Name": "Paradise X Sales GmbH",
        "Adresse": {
            "Strasse": "Gothaer Str. 4",
            "Ort": "Ratingen",
            "PLZ": "40880"
        }
    },
    "10029": {
        "Name": "Eurasia Business GmbH",
        "Adresse": {
            "Strasse": "Ehrenbreitsteinerstr. 36",
            "Ort": "M\u00fcnchen",
            "PLZ": "80993"
        }
    },
    "10030": {
        "Name": "Zehra Ayer",
        "Adresse": {
            "Strasse": "Unter den Ulmen 63",
            "Ort": "Duisburg",
            "PLZ": "47137"
        }
    },
    "10031": {
        "Name": "Honsowitz GmbH",
        "Adresse": {
            "Strasse": "Am Tauberberg 20",
            "Ort": "Lauda-K\u00f6nigshofen",
            "PLZ": "97922"
        }
    },
    "10032": {
        "Name": "Adrian Brucker GmbH & Co KG",
        "Adresse": {
            "Strasse": "M\u00fcnchener Str. 38",
            "Ort": "Rosenheim",
            "PLZ": "83022"
        }
    },
    "10033": {
        "Name": "Postagentur G\u00fcnes",
        "Adresse": {
            "Strasse": "D\u00fcnweg 42-44",
            "Ort": "Burscheid",
            "PLZ": "51399"
        }
    },
    "10034": {
        "Name": "Maos GmbH",
        "Adresse": {
            "Strasse": "Br\u00fchlstra\u00dfe 7",
            "Ort": "Magstadt",
            "PLZ": "71106"
        }
    },
    "10035": {
        "Name": "InfraRed24 GmbH",
        "Adresse": {
            "Strasse": "M\u00f6ckern Str. 31",
            "Ort": "Hannover",
            "PLZ": "30161"
        }
    },
    "10036": {
        "Name": "lana\\'s Kiosk",
        "Adresse": {
            "Strasse": "H\u00fclser Str. 159",
            "Ort": "Krefeld",
            "PLZ": "47803"
        }
    },
    "10037": {
        "Name": "J\u00f6rg Balters Service",
        "Adresse": {
            "Strasse": "M\u00fcnsterstr. 388",
            "Ort": "D\u00fcsseldorf",
            "PLZ": "40470"
        }
    },
    "10038": {
        "Name": "Grafindoo",
        "Adresse": {
            "Strasse": "Hubertstra\u00dfe 290",
            "Ort": "Essen",
            "PLZ": "45307"
        }
    },
    "10039": {
        "Name": "SmartPR",
        "Adresse": {
            "Strasse": "Lohstra\u00dfe 21",
            "Ort": "Bochum",
            "PLZ": "44809"
        }
    },
    "10040": {
        "Name": "72Shishastore",
        "Adresse": {
            "Strasse": "Bergstra\u00dfe 2A",
            "Ort": "Mechernich",
            "PLZ": "53894"
        }
    },
    "10064": {
        "Name": "Bre Consulting GmbH",
        "Adresse": {
            "Strasse": "Hinterm Sielhof 4\/5",
            "Ort": "Bremen",
            "PLZ": "28277"
        }
    },
    "10066": {
        "Name": "DHG Dienstleistunge & Handels GmbH",
        "Adresse": {
            "Strasse": "Inneboltstr. 118",
            "Ort": "Neukirchen-Vluyn",
            "PLZ": "47506"
        }
    },
    "10067": {
        "Name": "E-smoke4you-Nord GmbH",
        "Adresse": {
            "Strasse": "Zum Pascheberg 39",
            "Ort": "Kirchlinteln",
            "PLZ": "27308"
        }
    },
    "10068": {
        "Name": "Smokey-Dealz",
        "Adresse": {
            "Strasse": "Kieler Str. 103",
            "Ort": "Hamburg",
            "PLZ": "22769"
        }
    },
    "10070": {
        "Name": "Online Shop",
        "Adresse": {
            "Strasse": "",
            "Ort": "",
            "PLZ": ""
        }
    },
    "10071": {
        "Name": "Georg Brunner",
        "Adresse": {
            "Strasse": "Moosbach 5",
            "Ort": "Rudelzhausen",
            "PLZ": "84104"
        }
    },
    "10074": {
        "Name": "Mustafa Yildirim",
        "Adresse": {
            "Strasse": "Hombergerstr. 54",
            "Ort": "Moers",
            "PLZ": "47441"
        }
    },
    "10076": {
        "Name": "Max",
        "Adresse": {
            "Strasse": "",
            "Ort": "",
            "PLZ": ""
        }
    },
    "10075": {
        "Name": "Sun-Vi GmbH",
        "Adresse": {
            "Strasse": "Humboldtstr. 10",
            "Ort": "Glinde",
            "PLZ": "21509"
        }
    },
    "10077": {
        "Name": "Liquid Shop UG",
        "Adresse": {
            "Strasse": "K\u00f6nigstra\u00dfe 110",
            "Ort": "L\u00fcbeck",
            "PLZ": "23552"
        }
    },
    "10078": {
        "Name": "Uecker, Mandy",
        "Adresse": {
            "Strasse": "Amselweg 20",
            "Ort": "Wolgast",
            "PLZ": "17438"
        }
    },
    "10079": {
        "Name": "Autohaus J\u00f6rg Seidel GmBH",
        "Adresse": {
            "Strasse": "An den Eifelhecken 4",
            "Ort": "Weilerswist",
            "PLZ": "53919"
        }
    },
    "10080": {
        "Name": "Piccolo Shop",
        "Adresse": {
            "Strasse": "Falkenstr. 2",
            "Ort": "Danndorf",
            "PLZ": "38461"
        }
    },
    "10081": {
        "Name": "GRAF.studios UG",
        "Adresse": {
            "Strasse": "Hubertstra\u00dfe",
            "Ort": "Essen",
            "PLZ": "45307"
        }
    },
    "10082": {
        "Name": "Nacke & Tangerm\u00fcnde GmbH",
        "Adresse": {
            "Strasse": "Wilhelm Henze Weg 9",
            "Ort": "Burgdorf",
            "PLZ": "31303"
        }
    },
    "10083": {
        "Name": "ABZ Vertriebs GmbH",
        "Adresse": {
            "Strasse": "Metzgersgasse 5",
            "Ort": "R\u00f6ttenbach",
            "PLZ": "91187"
        }
    },
    "10084": {
        "Name": "J\u00fcrgensen Vertriebs GmbH",
        "Adresse": {
            "Strasse": "Huskoppel 5",
            "Ort": "Salzhausen",
            "PLZ": "21376"
        }
    },
    "10041": {
        "Name": "ZVG Zellstoff-Vertriebs-GmbH & Co. KG",
        "Adresse": {
            "Strasse": "Urbacher Stra\u00dfe 4+5",
            "Ort": "Troisdorf",
            "PLZ": "53842"
        }
    },
    "10042": {
        "Name": "Zau Zau GmbH",
        "Adresse": {
            "Strasse": "Hanauer Landstra\u00dfe 61",
            "Ort": "Hanau",
            "PLZ": "63457"
        }
    },
    "10043": {
        "Name": "Curro-Med GmbH",
        "Adresse": {
            "Strasse": "Konrad-Zuse-Str. 12",
            "Ort": "Kirkel",
            "PLZ": "66459"
        }
    },
    "10044": {
        "Name": "Bajic",
        "Adresse": {
            "Strasse": "F\u00e4rberstr 5",
            "Ort": "N\u00fcrnberg",
            "PLZ": "90402"
        }
    },
    "10045": {
        "Name": "SM MIR UG (haftungsbeschr\u00e4nkt)",
        "Adresse": {
            "Strasse": "M\u00fchlenstr. 8a",
            "Ort": "Berlin",
            "PLZ": "14167"
        }
    },
    "10046": {
        "Name": "Tanjas-Kerzentraumland",
        "Adresse": {
            "Strasse": "Elsa-Br\u00e4ndstr\u00f6m-Str.4",
            "Ort": "Solingen",
            "PLZ": "42651"
        }
    },
    "10047": {
        "Name": "artPresent Werbeartikel",
        "Adresse": {
            "Strasse": "Julienweg 48",
            "Ort": "Hamm",
            "PLZ": "59071"
        }
    },
    "10048": {
        "Name": "Richard Kehr GmbH & Co. KG",
        "Adresse": {
            "Strasse": "Sudetenstra\u00dfe 8",
            "Ort": "Braunschweig",
            "PLZ": "38114"
        }
    },
    "10049": {
        "Name": "Imiracle (Shenzhen) Technology Co. Ltd.",
        "Adresse": {
            "Strasse": "Guangdong Province, China",
            "Ort": "Dongguan City",
            "PLZ": "523860"
        }
    },
    "10050": {
        "Name": "Hoffmann Vertriebs GmbH",
        "Adresse": {
            "Strasse": "Im Moerser Feld 1F",
            "Ort": "Moers",
            "PLZ": "47441"
        }
    },
    "10051": {
        "Name": "DMF Tankstellen GmbH",
        "Adresse": {
            "Strasse": "Inneboltstr. 101",
            "Ort": "Neukirchen-Vluyn",
            "PLZ": "47506"
        }
    },
    "10052": {
        "Name": "Freshisha Store",
        "Adresse": {
            "Strasse": "Am Schornacker 105",
            "Ort": "Wesel",
            "PLZ": "46485"
        }
    },
    "10053": {
        "Name": "YiGiDO SHOP",
        "Adresse": {
            "Strasse": "Zur Werrem\u00fcndung 28",
            "Ort": "Bad Oeynhausen",
            "PLZ": "32549"
        }
    },
    "10054": {
        "Name": "All about Smoke GmbH",
        "Adresse": {
            "Strasse": "Alt-Rudow 61",
            "Ort": "Berlin",
            "PLZ": "12355"
        }
    },
    "10065": {
        "Name": "Medical Equip",
        "Adresse": {
            "Strasse": "F\u00fcrstenbrunner Weg 34",
            "Ort": "Berlin",
            "PLZ": "14059"
        }
    },
    "10069": {
        "Name": "BORNACK GmbH & Co. KG",
        "Adresse": {
            "Strasse": "Bustadt 39",
            "Ort": "Ilsfeld",
            "PLZ": "74360"
        }
    },
    "10073": {
        "Name": "Metropolitan Pharmacy",
        "Adresse": {
            "Strasse": "Terminalstra\u00dfe Mitte 1",
            "Ort": "M\u00fcnchen-Flughafen",
            "PLZ": "85356"
        }
    },
    "10085": {
        "Name": "AVIA Tankstelle Adem Bozaci",
        "Adresse": {
            "Strasse": "Karlsruherstr.95",
            "Ort": "Sinsheim",
            "PLZ": "74889"
        }
    },
    "10086": {
        "Name": "Stagemonkeys GmbH",
        "Adresse": {
            "Strasse": "August-Pieper-Stra\u00dfe 10",
            "Ort": "M\u00f6nchengladbach",
            "PLZ": "41061"
        }
    },
    "10087": {
        "Name": "Vapor Handels GmbH",
        "Adresse": {
            "Strasse": "Im H\u00fclsenfeld 9",
            "Ort": "Hilden",
            "PLZ": "40721"
        }
    },
    "10088": {
        "Name": "Yusuf D\u00fcsseldorf",
        "Adresse": {
            "Strasse": "",
            "Ort": "",
            "PLZ": ""
        }
    },
    "10089": {
        "Name": "Sofien Sakkouhi",
        "Adresse": {
            "Strasse": "Auf dem Sandberg 33",
            "Ort": "K\u00f6ln",
            "PLZ": "51105"
        }
    },
    "10090": {
        "Name": "Bobby",
        "Adresse": {
            "Strasse": "",
            "Ort": "",
            "PLZ": ""
        }
    },
    "10091": {
        "Name": "Khidir",
        "Adresse": {
            "Strasse": "",
            "Ort": "",
            "PLZ": ""
        }
    },
    "10092": {
        "Name": "Hensing GmbH",
        "Adresse": {
            "Strasse": "Gutenbergstr. 34",
            "Ort": "Emsdetten",
            "PLZ": "48282"
        }
    },
    "10093": {
        "Name": "inter tabak GmbH",
        "Adresse": {
            "Strasse": "Brunnenstr 84",
            "Ort": "Berlin",
            "PLZ": "13355"
        }
    },
    "10094": {
        "Name": "Friends Kiosk",
        "Adresse": {
            "Strasse": "Bismarckstr. 51",
            "Ort": "D\u00fcsseldorf",
            "PLZ": "40210"
        }
    },
    "10095": {
        "Name": "Bestawrous Imp.&Export",
        "Adresse": {
            "Strasse": "Koppers Stra\u00dfe 25",
            "Ort": "D\u00fcsseldorf",
            "PLZ": "40549"
        }
    },
    "10096": {
        "Name": "Familie Krohn",
        "Adresse": {
            "Strasse": "Hellweg 61 c",
            "Ort": "Essen",
            "PLZ": "45276"
        }
    },
    "10097": {
        "Name": "Sidar Kaya",
        "Adresse": {
            "Strasse": "Frieda Nadig Stra\u00dfe 62",
            "Ort": "Moers",
            "PLZ": "47441"
        }
    },
    "10098": {
        "Name": "Ertan Demir",
        "Adresse": {
            "Strasse": "Frieda-Nadig-Stra\u00dfe 20",
            "Ort": "Moers",
            "PLZ": "47441"
        }
    },
    "10099": {
        "Name": "Caspian Logistics & Freight Forwarding",
        "Adresse": {
            "Strasse": "Karpich Str. 14",
            "Ort": "",
            "PLZ": "AZ1022"
        }
    },
    "10100": {
        "Name": "Tabac Store",
        "Adresse": {
            "Strasse": "Konrad-Adenauer-Platz 9",
            "Ort": "D\u00fcsseldorf",
            "PLZ": "40210"
        }
    },
    "10101": {
        "Name": "S\u00fc\u00dfland Shop",
        "Adresse": {
            "Strasse": "Hunsr\u00fcckenstr. 12b",
            "Ort": "D\u00fcsseldorf",
            "PLZ": "40213"
        }
    },
    "10102": {
        "Name": "Gatsby Bar",
        "Adresse": {
            "Strasse": "Kastell 1c",
            "Ort": "Moers",
            "PLZ": "47441"
        }
    },
    "10103": {
        "Name": "Johann Vetter",
        "Adresse": {
            "Strasse": "Im Felde 42",
            "Ort": "Moers",
            "PLZ": "47445"
        }
    },
    "10104": {
        "Name": "Fill Up Kiosk",
        "Adresse": {
            "Strasse": "Bolkerstr. 8",
            "Ort": "D\u00fcsseldorf",
            "PLZ": "40213"
        }
    },
    "10105": {
        "Name": "Trokaderos Deutschland GmbH",
        "Adresse": {
            "Strasse": "Ludwig Erhard Strasse 18",
            "Ort": "Hamurg",
            "PLZ": "20459"
        }
    },
    "10106": {
        "Name": "Clubevents",
        "Adresse": {
            "Strasse": "Paulystra\u00dfe 6",
            "Ort": "Meldorf",
            "PLZ": "25704"
        }
    },
    "10107": {
        "Name": "Lizard IT GmbH",
        "Adresse": {
            "Strasse": "Idafehn Nord 34",
            "Ort": "Ostrhauderfehn",
            "PLZ": "26842"
        }
    },
    "10108": {
        "Name": "Franchy Fashion BV",
        "Adresse": {
            "Strasse": "Zuid Esmarkerrondweg 315",
            "Ort": "ENSCHEDE",
            "PLZ": "7535"
        }
    },
    "10072": {
        "Name": "Base Innovation GmbH",
        "Adresse": {
            "Strasse": "Friedrichstra\u00dfe 7",
            "Ort": "D\u00fcsseldorf",
            "PLZ": "40217"
        }
    },
    "10109": {
        "Name": "Tan Doel",
        "Adresse": {
            "Strasse": "L\u00f6hdorf 8",
            "Ort": "Solingen",
            "PLZ": "42699"
        }
    },
    "10110": {
        "Name": "Gleis 0 Kiosk",
        "Adresse": {
            "Strasse": "Venloerstr. 354b",
            "Ort": "K\u00f6ln",
            "PLZ": "50825"
        }
    },
    "10111": {
        "Name": "CallCenter",
        "Adresse": {
            "Strasse": "",
            "Ort": "",
            "PLZ": ""
        }
    },
    "10112": {
        "Name": "SafeGlass B.V.",
        "Adresse": {
            "Strasse": "Oldenzaalsestraat 72",
            "Ort": "Enschede",
            "PLZ": "7511 DT"
        }
    },
    "10113": {
        "Name": "SL Elements GmbH",
        "Adresse": {
            "Strasse": "Busbach 37",
            "Ort": "Eckersdorf",
            "PLZ": "95488"
        }
    },
    "10114": {
        "Name": "Mehlwelt GmbH",
        "Adresse": {
            "Strasse": "Siedenfelder Weg 89",
            "Ort": "Hamburg",
            "PLZ": "21109"
        }
    },
    "": {
        "Name": "Ivan Mathias Alilovic",
        "Adresse": {
            "Strasse": "Leinburger Weg 12",
            "Ort": "Winkelhaid",
            "PLZ": "90610"
        }
    },
    "10115": {
        "Name": "Gourmet Investment GmbH",
        "Adresse": {
            "Strasse": "Karlstra\u00dfe 70",
            "Ort": "D\u00fcsseldorf",
            "PLZ": "40410"
        }
    },
    "10116": {
        "Name": "Wonicy GmbH",
        "Adresse": {
            "Strasse": "Mainstrasse 85 (Block 20)",
            "Ort": "Neuss",
            "PLZ": "41469"
        }
    },
    "10117": {
        "Name": "Ten Vertriebs GmbH",
        "Adresse": {
            "Strasse": "D\u00fcrener Str. 21",
            "Ort": "Solingen",
            "PLZ": "42697"
        }
    },
    "10118": {
        "Name": "Shisha Store",
        "Adresse": {
            "Strasse": "Moerserstr 253",
            "Ort": "Kamp-Lintfort",
            "PLZ": "47475"
        }
    },
    "10119": {
        "Name": "NAAM Distribution GmbH & Co. KG",
        "Adresse": {
            "Strasse": "Johanniskirch Str 94",
            "Ort": "Essen",
            "PLZ": "45329"
        }
    },
    "10120": {
        "Name": "kmimportexport",
        "Adresse": {
            "Strasse": "Melkpad 39",
            "Ort": "Rotterdam",
            "PLZ": "3075IN"
        }
    },
    "10121": {
        "Name": "TJ Enterprises",
        "Adresse": {
            "Strasse": "Reifferscheidstrasse 6",
            "Ort": "H\u00fcrth",
            "PLZ": "50354"
        }
    },
    "10122": {
        "Name": "Vaperspoint",
        "Adresse": {
            "Strasse": "Melanchthonstr. 5",
            "Ort": "Krefeld",
            "PLZ": "47805"
        }
    },
    "10123": {
        "Name": "CC Gro\u00dfhandel GmbH",
        "Adresse": {
            "Strasse": "Emil-Figge-Str. 91",
            "Ort": "Dortmund",
            "PLZ": "44227"
        }
    },
    "10124": {
        "Name": "Abdurrahman Cansu",
        "Adresse": {
            "Strasse": "Herzbergstrasse 128-139",
            "Ort": "Berlin",
            "PLZ": "10365"
        }
    },
    "10125": {
        "Name": "Die Tabak Bar Thilo Seitz",
        "Adresse": {
            "Strasse": "Lil-Dagover-Gasse 1",
            "Ort": "Berlin Hellersdorf",
            "PLZ": "12627"
        }
    },
    "10126": {
        "Name": "Albabryan Gneral Trading L.L.C",
        "Adresse": {
            "Strasse": "1\/108 Street 20",
            "Ort": "Dubai",
            "PLZ": ""
        }
    },
    "10127": {
        "Name": "Fumatul Distribution GmbH",
        "Adresse": {
            "Strasse": "Am Sch\u00fcrmannsh\u00fctt 30",
            "Ort": "Moers",
            "PLZ": "47441"
        }
    },
    "10128": {
        "Name": "Miva Distribution GmbH",
        "Adresse": {
            "Strasse": "Kuhlenstr. 67",
            "Ort": "M\u00fclheim an der Ruhr",
            "PLZ": "45468"
        }
    },
    "10129": {
        "Name": "E.R",
        "Adresse": {
            "Strasse": "9 avenue Michelet",
            "Ort": "Saint-ouen",
            "PLZ": "93400"
        }
    },
    "10130": {
        "Name": "SKE Technology GmbH",
        "Adresse": {
            "Strasse": "Walterstr. 9",
            "Ort": "Berlin",
            "PLZ": "12051"
        }
    },
    "10131": {
        "Name": "DG Trade GmbH",
        "Adresse": {
            "Strasse": "Franz Schubert Stra\u00dfe 14",
            "Ort": "Ratingen",
            "PLZ": "40885"
        }
    },
    "10132": {
        "Name": "Stephan Liekenbrock",
        "Adresse": {
            "Strasse": "Augustastra\u00dfe 22",
            "Ort": "Moers",
            "PLZ": "47441"
        }
    },
    "10133": {
        "Name": "Yasin Acikel",
        "Adresse": {
            "Strasse": "Holbeinstrasse.32",
            "Ort": "Lindau",
            "PLZ": "88131"
        }
    },
    "10134": {
        "Name": "Trink & Spare El Charip",
        "Adresse": {
            "Strasse": "Gubener Stra\u00dfe",
            "Ort": "D\u00fcsseldorf",
            "PLZ": "40627"
        }
    },
    "10135": {
        "Name": "Krause Maschinenhandels & Service GmbH",
        "Adresse": {
            "Strasse": "Obernstrasse 50",
            "Ort": "Achim",
            "PLZ": "28832"
        }
    },
    "10136": {
        "Name": "SHENZHEN SKE Technology Co.,LTD.",
        "Adresse": {
            "Strasse": "Industrial ParkShajing Street",
            "Ort": "SHENZHEN",
            "PLZ": ""
        }
    },
    "10137": {
        "Name": "Evolve GmbH",
        "Adresse": {
            "Strasse": "Velberter Str. 18a",
            "Ort": "Essen",
            "PLZ": "45239"
        }
    },
    "10138": {
        "Name": "Automobile M. Selimovic",
        "Adresse": {
            "Strasse": "Herner Str. 69a",
            "Ort": "Herne",
            "PLZ": "44652"
        }
    },
    "10139": {
        "Name": "Toptrend E.Schmidt",
        "Adresse": {
            "Strasse": "Am Windhof, 6",
            "Ort": "Bottenbach",
            "PLZ": "66504"
        }
    },
    "10140": {
        "Name": "Rastplatz Brockbachtal S\u00fcd",
        "Adresse": {
            "Strasse": "Danebrockerstr. 10",
            "Ort": "Westerkappeln",
            "PLZ": "49492"
        }
    },
    "10141": {
        "Name": "M+V Electronics GmbH",
        "Adresse": {
            "Strasse": "Rheinstr.59",
            "Ort": "Wiesbaden",
            "PLZ": "65185"
        }
    },
    "10142": {
        "Name": "Miva Tec GmbH",
        "Adresse": {
            "Strasse": "Kuhlenstr. 67",
            "Ort": "M\u00fclheim an der Ruhr",
            "PLZ": "45468"
        }
    },
    "10144": {
        "Name": "Intrade Concepts GmbH",
        "Adresse": {
            "Strasse": "Barentsstra\u00dfe 13",
            "Ort": "Euskirchen",
            "PLZ": "53881"
        }
    },
    "10145": {
        "Name": "CUBAR Club GmbH",
        "Adresse": {
            "Strasse": "Suhrenkamp 59",
            "Ort": "Hamburg",
            "PLZ": "22335"
        }
    },
    "10146": {
        "Name": "TAK Verw. und Bet. Gmbh",
        "Adresse": {
            "Strasse": "Sebastianusstr. 1",
            "Ort": "Frechen",
            "PLZ": "50226"
        }
    },
    "10147": {
        "Name": "Vapebazar",
        "Adresse": {
            "Strasse": "Marie-Curie-Stra\u00dfe 16",
            "Ort": "Hemmingen",
            "PLZ": "30966"
        }
    },
    "10148": {
        "Name": "Massimo24.de",
        "Adresse": {
            "Strasse": "Gewerbering 13",
            "Ort": "Viersen",
            "PLZ": "41751"
        }
    },
    "10149": {
        "Name": "ALKA GO",
        "Adresse": {
            "Strasse": "Tulpenstr. 15",
            "Ort": "Friedberg",
            "PLZ": "61169"
        }
    },
    "10150": {
        "Name": "MG Wesel GmbH",
        "Adresse": {
            "Strasse": "Am Schornacker 105A",
            "Ort": "Wesel",
            "PLZ": "46485"
        }
    },
    "10151": {
        "Name": "Fog Trade GmbH",
        "Adresse": {
            "Strasse": "Stuttgarter Str. 153",
            "Ort": "Schw\u00e4bisch Hall",
            "PLZ": "74523"
        }
    },
    "10152": {
        "Name": "Aladin e.K.",
        "Adresse": {
            "Strasse": "Schossbergstra\u00dfe 22",
            "Ort": "Wiesbaden",
            "PLZ": "65201"
        }
    },
    "10153": {
        "Name": "SMOKE\u2019IT",
        "Adresse": {
            "Strasse": "Katernberger Str. 93b",
            "Ort": "Essen",
            "PLZ": "45327"
        }
    },
    "10154": {
        "Name": "Shisha Fame GmbH",
        "Adresse": {
            "Strasse": "Peterstrasse 20-24",
            "Ort": "Aachen",
            "PLZ": "52062"
        }
    },
    "10155": {
        "Name": "ISI GmbH",
        "Adresse": {
            "Strasse": "Boschstr. 18",
            "Ort": "Bondorf",
            "PLZ": "71149"
        }
    },
    "10156": {
        "Name": "Peter Cames GmbH & Co. KG",
        "Adresse": {
            "Strasse": "Moselstra\u00dfe 3",
            "Ort": "Neuss",
            "PLZ": "41464"
        }
    },
    "10157": {
        "Name": "Aladin Online e.K.",
        "Adresse": {
            "Strasse": "Scho\u00dfbergstra\u00dfe 22",
            "Ort": "Wiesbaden",
            "PLZ": "65201"
        }
    },
    "10158": {
        "Name": "Vape Paradies",
        "Adresse": {
            "Strasse": "Westerbruchstr. 108",
            "Ort": "Moers",
            "PLZ": "47441"
        }
    },
    "10159": {
        "Name": "Shisha Store Moers",
        "Adresse": {
            "Strasse": "Augusta 6d",
            "Ort": "Moers",
            "PLZ": "47441"
        }
    },
    "10160": {
        "Name": "Die S\u00fc\u00dfwaren Profis XXL",
        "Adresse": {
            "Strasse": "Bahnhofstra\u00dfe 28 (Loom)",
            "Ort": "Bielefeld",
            "PLZ": "33602"
        }
    },
    "10161": {
        "Name": "Carina Schaffer",
        "Adresse": {
            "Strasse": "Feldstra\u00dfe 3a",
            "Ort": "Neuendettelsau",
            "PLZ": "91564"
        }
    },
    "10173": {
        "Name": "Jana Winkelh\u00f6fer",
        "Adresse": {
            "Strasse": "Kirchsteig 4",
            "Ort": "M\u00fclsen",
            "PLZ": "08132"
        }
    },
    "10174": {
        "Name": "Alexandra Link",
        "Adresse": {
            "Strasse": "Rheinallee 27a",
            "Ort": "Fl\u00f6rsheim",
            "PLZ": "65439"
        }
    },
    "10162": {
        "Name": "Serdar Yildirim",
        "Adresse": {
            "Strasse": "Gradestr. 44",
            "Ort": "Berlin",
            "PLZ": "12347"
        }
    },
    "10163": {
        "Name": "Daniel Kussmaul",
        "Adresse": {
            "Strasse": "Thomas-Mann-Str. 29",
            "Ort": "Stuttgart",
            "PLZ": "70469"
        }
    },
    "10164": {
        "Name": "Mirco Lefeld",
        "Adresse": {
            "Strasse": "Johann-Sebastian-Bach-Stra\u00dfe 6",
            "Ort": "Rheda-Wiedenbr\u00fcck",
            "PLZ": "33378"
        }
    },
    "10165": {
        "Name": "Katrin Hannweg",
        "Adresse": {
            "Strasse": "Waldstra\u00dfe 46b",
            "Ort": "F\u00fcrth",
            "PLZ": "90763"
        }
    },
    "10175": {
        "Name": "Xenia Bublik",
        "Adresse": {
            "Strasse": "Gerhart-Hauptmann-Str.77",
            "Ort": "Neumarkt",
            "PLZ": "92318"
        }
    },
    "10166": {
        "Name": "Fernando Lopez Martinez",
        "Adresse": {
            "Strasse": "M\u00f6ckernstr 76",
            "Ort": "Berlin",
            "PLZ": "10965"
        }
    },
    "10167": {
        "Name": "Timo Holze",
        "Adresse": {
            "Strasse": "Mainweg 4",
            "Ort": "Braunschweig",
            "PLZ": "38120"
        }
    },
    "10168": {
        "Name": "Philipp Klausing",
        "Adresse": {
            "Strasse": "Angerstra\u00dfe 20",
            "Ort": "Hannover",
            "PLZ": "30161"
        }
    },
    "10169": {
        "Name": "Julia Kalemba",
        "Adresse": {
            "Strasse": "Steinweg 3",
            "Ort": "Eging",
            "PLZ": "94535"
        }
    },
    "10170": {
        "Name": "Carmen Kr\u00fcger",
        "Adresse": {
            "Strasse": "Pfaffenwaldring 39a",
            "Ort": "Stuttgart",
            "PLZ": "70569"
        }
    },
    "10176": {
        "Name": "Oliver Krau\u00df",
        "Adresse": {
            "Strasse": "Karlstrasse 22",
            "Ort": "Wolfenb\u00fcttel",
            "PLZ": "38300"
        }
    },
    "10171": {
        "Name": "Jennifer Sturhann",
        "Adresse": {
            "Strasse": "Hiddinghausen 3",
            "Ort": "D\u00f6rverden",
            "PLZ": "27313"
        }
    },
    "10172": {
        "Name": "Jordis Bergmann",
        "Adresse": {
            "Strasse": "Dornenweg 5",
            "Ort": "Leezen",
            "PLZ": "23816"
        }
    },
    "10177": {
        "Name": "Efor Mix GmbH",
        "Adresse": {
            "Strasse": "Liebigstr. 77",
            "Ort": "Hamburg",
            "PLZ": "22113"
        }
    },
    "10178": {
        "Name": "Phone- x smokepoint GmbH",
        "Adresse": {
            "Strasse": "Horbeller str\u00a09\u00a0",
            "Ort": "K\u00f6ln",
            "PLZ": "50858"
        }
    },
    "10179": {
        "Name": "Shishamax24 e.K.",
        "Adresse": {
            "Strasse": "Rothenburger Str. 14",
            "Ort": "N\u00fcrnberg",
            "PLZ": "90443"
        }
    },
    "10180": {
        "Name": "Hermann Hauser GmbH",
        "Adresse": {
            "Strasse": "Josef-Schorer-Stra\u00dfe 9",
            "Ort": "Augsburg",
            "PLZ": "86179"
        }
    },
    "10181": {
        "Name": "DS Vaping (Shenzhen) Co.Limited",
        "Adresse": {
            "Strasse": "Xinqao Street, Bao'an District",
            "Ort": "Shenzhen",
            "PLZ": "518125"
        }
    },
    "10182": {
        "Name": "Hookahaus GmbH & Co. KG",
        "Adresse": {
            "Strasse": "Daimlerstra\u00dfe 12\/1",
            "Ort": "Weinheim",
            "PLZ": "69469"
        }
    },
    "10183": {
        "Name": "NIKA Tobacco GmbH",
        "Adresse": {
            "Strasse": "Hauptstra\u00dfe 161",
            "Ort": "Mannheim",
            "PLZ": "68259"
        }
    },
    "10184": {
        "Name": "Nargile Shop GmbH",
        "Adresse": {
            "Strasse": "Adolf-Ley Str.5",
            "Ort": "Schweinfurt",
            "PLZ": "97424"
        }
    },
    "10185": {
        "Name": "Shishamour",
        "Adresse": {
            "Strasse": "L\u00e4rchenstr. 81",
            "Ort": "Frankfurt am Main",
            "PLZ": "65933"
        }
    },
    "10186": {
        "Name": "Pipah2Go - Day & Night - 24\/7 Automaten",
        "Adresse": {
            "Strasse": "Stadtring 38",
            "Ort": "Nordhorn",
            "PLZ": "48527"
        }
    },
    "10187": {
        "Name": "Projekt 20drei10 GmbH",
        "Adresse": {
            "Strasse": "Ulmer Str. 68",
            "Ort": "Aalen",
            "PLZ": "73431"
        }
    },
    "10188": {
        "Name": "Sino's Tradeworld GmbH",
        "Adresse": {
            "Strasse": "Seegefelderstra\u00dfe 18",
            "Ort": "Berlin",
            "PLZ": "13583"
        }
    },
    "10189": {
        "Name": "Shisha Supply",
        "Adresse": {
            "Strasse": "Wandsbeker Marktstrasse 155",
            "Ort": "Hamburg",
            "PLZ": "22041"
        }
    },
    "10190": {
        "Name": "Micabeauty GmbH",
        "Adresse": {
            "Strasse": "Mariahilferstrasse 66",
            "Ort": "Wien",
            "PLZ": "1070"
        }
    },
    "10191": {
        "Name": "Fun of Europe Handels GmbH",
        "Adresse": {
            "Strasse": "Schleifweg 12",
            "Ort": "Heroldsberg",
            "PLZ": "90562"
        }
    },
    "10192": {
        "Name": "Cultimo",
        "Adresse": {
            "Strasse": "Vulkanstr. 12c",
            "Ort": "Berlin",
            "PLZ": "10367"
        }
    },
    "10193": {
        "Name": "Naschimann",
        "Adresse": {
            "Strasse": "Billstra\u00dfe 180",
            "Ort": "Hamburg",
            "PLZ": "20539"
        }
    },
    "10194": {
        "Name": "Mashall Trade GmbH",
        "Adresse": {
            "Strasse": "Schwanthalerstr. 5",
            "Ort": "M\u00fcnchen",
            "PLZ": "80336"
        }
    },
    "10195": {
        "Name": "Snack Paradies",
        "Adresse": {
            "Strasse": "Westerbruchstr. 108",
            "Ort": "Moers",
            "PLZ": "47443"
        }
    },
    "10196": {
        "Name": "FutureTec GmbH & Co. KG",
        "Adresse": {
            "Strasse": "Am Sch\u00fcrmannsh\u00fctt 30 H-I",
            "Ort": "Moers",
            "PLZ": "47441"
        }
    },
    "10197": {
        "Name": "La Mar Shisha \/ Shisha King",
        "Adresse": {
            "Strasse": "Stockholmer Str. 17",
            "Ort": "M\u00fcnster",
            "PLZ": "48163"
        }
    },
    "10198": {
        "Name": "Simba2go Ug",
        "Adresse": {
            "Strasse": "Hammerstra\u00dfe 29",
            "Ort": "D\u00fcsseldorf",
            "PLZ": "40219"
        }
    },
    "10199": {
        "Name": "AKRA GmbH",
        "Adresse": {
            "Strasse": "M\u00fchlsteig 13",
            "Ort": "Langenzenn",
            "PLZ": "90579"
        }
    },
    "10200": {
        "Name": "Packing Innovations LLC",
        "Adresse": {
            "Strasse": "Coffeen Ave STE 9274",
            "Ort": "Sheridan",
            "PLZ": "82801"
        }
    },
    "10201": {
        "Name": "Headshop GmbH",
        "Adresse": {
            "Strasse": "Gr\u00fctzenstrasse 2",
            "Ort": "Schweiz",
            "PLZ": "8807"
        }
    },
    "10202": {
        "Name": "Elektro Krug",
        "Adresse": {
            "Strasse": "Schwanthalerstr. 5",
            "Ort": "M\u00fcnchen",
            "PLZ": "80336"
        }
    },
    "10203": {
        "Name": "Test",
        "Adresse": {
            "Strasse": "",
            "Ort": "",
            "PLZ": ""
        }
    },
    "10204": {
        "Name": "SelfStorage Dein Lagerraum  GmbH",
        "Adresse": {
            "Strasse": "Markstrasse 11",
            "Ort": "Berlin",
            "PLZ": "13409"
        }
    },
    "10205": {
        "Name": "AE Agency Amin ezzahir",
        "Adresse": {
            "Strasse": "Hanauer Landstra\u00dfe 202",
            "Ort": "Frankfurt am Main",
            "PLZ": "60314"
        }
    },
    "10206": {
        "Name": "Lagerbox K\u00f6ln gmbh",
        "Adresse": {
            "Strasse": "Rolshover Stra\u00dfe 227",
            "Ort": "K\u00f6ln",
            "PLZ": "51107"
        }
    },
    "10207": {
        "Name": "Zamu Pro GmbH",
        "Adresse": {
            "Strasse": "Ellerbruchstr 105a",
            "Ort": "Dorsten",
            "PLZ": "46284"
        }
    },
    "10208": {
        "Name": "Socab GmbH",
        "Adresse": {
            "Strasse": "Verner Panton Str. 2",
            "Ort": "Neuenburg",
            "PLZ": "79395"
        }
    },
    "10209": {
        "Name": "EDA Trading UG",
        "Adresse": {
            "Strasse": "Prinzregentenstra\u00dfe 54",
            "Ort": "M\u00fcnchen",
            "PLZ": "80538"
        }
    },
    "10210": {
        "Name": "S&A Trading Company",
        "Adresse": {
            "Strasse": "Tonndorfer Weg 16",
            "Ort": "Hamburg",
            "PLZ": "22149"
        }
    },
    "10211": {
        "Name": "Shisharia GmbH",
        "Adresse": {
            "Strasse": "Neckarsulmer Stra\u00dfe 59",
            "Ort": "Heilbronn",
            "PLZ": "74076"
        }
    },
    "10212": {
        "Name": "Fumari Vertrieb Deutschland",
        "Adresse": {
            "Strasse": "Miramstr. 87",
            "Ort": "Kassel",
            "PLZ": "34123"
        }
    },
    "10213": {
        "Name": "Ki GROSS",
        "Adresse": {
            "Strasse": "Stadtbahnstra\u00dfe 114",
            "Ort": "Hamburg",
            "PLZ": "22391"
        }
    },
    "10214": {
        "Name": "AE Agency Amin ezzahir",
        "Adresse": {
            "Strasse": "Markstrasse 11",
            "Ort": "Berlin",
            "PLZ": "13409"
        }
    },
    "10223": {
        "Name": "AE Agency Amin ezzahir",
        "Adresse": {
            "Strasse": "Rolshover Stra\u00dfe 227",
            "Ort": "K\u00f6ln",
            "PLZ": "51107"
        }
    },
    "10215": {
        "Name": "Spirit Age LTD",
        "Adresse": {
            "Strasse": "Prinzenallee 7",
            "Ort": "D\u00fcsseldorf",
            "PLZ": "40549"
        }
    },
    "10216": {
        "Name": "My Kiosk",
        "Adresse": {
            "Strasse": "",
            "Ort": "Moers",
            "PLZ": "47441"
        }
    },
    "10217": {
        "Name": "Daniel Hertz",
        "Adresse": {
            "Strasse": "ewald-rettberg-str.25",
            "Ort": "Ennepetal",
            "PLZ": "58256"
        }
    },
    "10218": {
        "Name": "Dominik Schorn",
        "Adresse": {
            "Strasse": "Mittelweg 41b",
            "Ort": "Hamburg",
            "PLZ": "20148"
        }
    },
    "10219": {
        "Name": "Sanpha Kabia",
        "Adresse": {
            "Strasse": "Paul-Langen Strasse 4",
            "Ort": "Bonn",
            "PLZ": "53229"
        }
    },
    "10220": {
        "Name": "Faouzi El Mourabit",
        "Adresse": {
            "Strasse": "Feldstra\u00dfe 32",
            "Ort": "Bad Homburg",
            "PLZ": "61352"
        }
    },
    "10221": {
        "Name": "Cihan",
        "Adresse": {
            "Strasse": "Wandsbeker Zollstra\u00dfe 104",
            "Ort": "Hamburg",
            "PLZ": "22041"
        }
    },
    "10222": {
        "Name": "Ivan Mathias Alilovic",
        "Adresse": {
            "Strasse": "Leinburger Weg 12",
            "Ort": "Winkelhaid",
            "PLZ": "90610"
        }
    },
    "10224": {
        "Name": "G-Boarder GmbH",
        "Adresse": {
            "Strasse": "Hanauer Landstra\u00dfe 204",
            "Ort": "Frankfurt am Main",
            "PLZ": "60314"
        }
    },
    "10226": {
        "Name": "FBH Protection GmbH",
        "Adresse": {
            "Strasse": "Amtsdamm 45a",
            "Ort": "Hagen im Bremischen",
            "PLZ": "27628"
        }
    },
    "10225": {
        "Name": "Smoke Empire",
        "Adresse": {
            "Strasse": "Luxemburger Str. 124",
            "Ort": "K\u00f6ln",
            "PLZ": "50939"
        }
    },
    "10227": {
        "Name": "Vape Handel gmbh",
        "Adresse": {
            "Strasse": "Kroonhorst 33",
            "Ort": "Hamburg",
            "PLZ": "22549"
        }
    },
    "10228": {
        "Name": "Sahara shisha",
        "Adresse": {
            "Strasse": "Alter Flughafen 15A",
            "Ort": "Hannover",
            "PLZ": "30179"
        }
    },
    "10229": {
        "Name": "RAMA Electronics Trading FZCO",
        "Adresse": {
            "Strasse": "5 East A Dubai Airport Freezone",
            "Ort": "Dubai",
            "PLZ": "1900"
        }
    },
    "10230": {
        "Name": "Veneno GmbH",
        "Adresse": {
            "Strasse": "R\u00fcdigerstr. 10",
            "Ort": "D\u00fcsseldorf",
            "PLZ": "40472"
        }
    },
    "10231": {
        "Name": "Daniel Hertz",
        "Adresse": {
            "Strasse": "ewald-rettberg-str.25",
            "Ort": "Ennepetal",
            "PLZ": "58256"
        }
    },
    "10232": {
        "Name": "Philipp Pressmann",
        "Adresse": {
            "Strasse": "Sterrenhofweg 39",
            "Ort": "K\u00f6ln",
            "PLZ": "50858"
        }
    },
    "10233": {
        "Name": "Cihan Can Celik",
        "Adresse": {
            "Strasse": "Wandsbeker Zollstra\u00dfe 104",
            "Ort": "Hamburg",
            "PLZ": "22041"
        }
    },
    "10234": {
        "Name": "Christian Kuhn",
        "Adresse": {
            "Strasse": "Bittkauer Weg 7",
            "Ort": "Tangerh\u00fctte",
            "PLZ": "39517"
        }
    },
    "10235": {
        "Name": "Yueqi Wang",
        "Adresse": {
            "Strasse": "Oststr.38",
            "Ort": "D\u00fcsseldorf",
            "PLZ": "40211"
        }
    },
    "10236": {
        "Name": "Heavengifts International Co Ltd",
        "Adresse": {
            "Strasse": "Bao 'an District",
            "Ort": "Shenzhen",
            "PLZ": "518100"
        }
    },
    "10237": {
        "Name": "emtrada GmbH",
        "Adresse": {
            "Strasse": "Fahrenheitstrasse 5",
            "Ort": "Landsberg",
            "PLZ": "86899"
        }
    },
    "10238": {
        "Name": "Mehmet",
        "Adresse": {
            "Strasse": "",
            "Ort": "",
            "PLZ": ""
        }
    },
    "10239": {
        "Name": "Mehmet Yildiz & Abdi bozkurt",
        "Adresse": {
            "Strasse": "Schwabstr.16",
            "Ort": "D\u00fcsseldorf",
            "PLZ": "40235"
        }
    },
    "10240": {
        "Name": "Franchy Fashion B.V.",
        "Adresse": {
            "Strasse": "Oldenzaalsestraat 72",
            "Ort": "DT Enschede",
            "PLZ": "7511"
        }
    }
}